OBJECT_NAME,OBJECT_ID,EPOCH,MEAN_MOTION,ECCENTRICITY,INCLINATION,RA_OF_ASC_NODE,ARG_OF_PERICENTER,MEAN_ANOMALY,EPHEMERIS_TYPE,CLASSIFICATION_TYPE,NORAD_CAT_ID,ELEMENT_SET_NO,REV_AT_EPOCH,BSTAR,MEAN_MOTION_DOT,MEAN_MOTION_DDOT
TJS-10,2023-169A,2026-07-22T11:45:44.360064,1.00272313,.0004128,2.6328,80.0686,111.4129,17.6036,0,U,58204,999,989,0,-.248E-5,0
ZHONGXING-6E,2023-172A,2026-07-23T01:56:38.692032,1.00268384,.00030469,0.0514,246.3651,226.3469,332.7426,0,U,58253,999,1001,0,-.357E-5,0
YAOGAN-41,2023-197A,2026-07-23T16:59:38.660640,1.00273562,.0014155,3.0635,313.7196,200.1410,165.6631,0,U,58582,999,969,0,-.353E-5,0
OVZON-3,2024-003A,2026-07-23T20:06:39.027744,1.00273709,.0000234,0.0200,149.0152,293.2241,220.6722,0,U,58698,999,781,0,.56E-6,0
INSAT-3DS,2024-033A,2026-07-23T20:13:08.405760,1.00273491,.000128,0.0702,261.7061,217.0954,208.1041,0,U,58990,999,4743,0,-.151E-5,0
MERAH PUTIH 2,2024-035A,2026-07-23T20:21:52.567776,1.00270718,.0001281,0.0163,77.6216,38.2231,244.1422,0,U,58995,999,895,0,-.353E-5,0
TJS-11,2024-037A,2026-07-23T20:21:45.081216,1.00270620,.0002164,4.1520,327.5415,159.7184,232.3274,0,U,59020,999,895,0,-.353E-5,0
HULIANWAN GAOGUI-01 (HG-01),2024-040A,2026-07-23T06:18:04.821120,1.00271574,.0001654,0.0753,332.8067,77.1966,19.1378,0,U,59069,999,769,0,.16E-5,0
EUTELSAT 36D,2024-059A,2026-07-23T13:09:15.681024,1.00270188,.0000139,0.0245,61.2060,35.4304,77.8112,0,U,59346,999,851,0,0,0
PAKSAT-MM1,2024-104A,2026-07-23T20:43:38.711136,1.00275973,.0002297,0.0305,166.3769,295.2290,189.1506,0,U,59915,999,789,0,.159E-5,0
ASTRA 1P (SES-24),2024-115A,2026-07-23T02:48:37.764000,1.00268700,.0001164,0.0671,323.7661,247.1895,151.2508,0,U,60086,999,755,0,.124E-5,0
GOES 19,2024-119A,2026-07-23T12:37:41.208096,1.00272112,.0000325,0.0205,124.2755,46.6739,244.5382,0,U,60133,999,732,0,-.244E-5,0
ZHONGXING-3A,2024-122A,2026-07-22T18:38:53.831616,1.00271192,.0001619,0.0306,139.3053,19.7453,162.7656,0,U,60179,999,766,0,-.309E-5,0
TURKSAT 6A,2024-127A,2026-07-21T20:07:24.773088,1.00274233,.0003146,0.0444,216.7267,310.1163,116.5770,0,U,60233,999,736,0,.149E-5,0
HULIANWAN GAOGUI-02 (HG-02),2024-135A,2026-07-22T10:42:36.182304,1.00274738,.00058941,0.0479,358.6429,13.0934,242.1466,0,U,60327,999,785,0,-.17E-5,0
ZHONGXING-4A,2024-151A,2026-07-23T20:23:22.426368,1.00271480,.0000115,1.2218,270.3914,248.6389,206.6128,0,U,60606,999,712,0,-.356E-5,0
HULIANWAN GAOGUI-03 (HG-03),2024-181A,2026-07-22T21:33:17.737344,1.00275075,.00015336,0.0529,1.4631,86.3948,98.9604,0,U,61503,999,718,0,-.237E-5,0
DSN-3 (KIRAMEKI-3),2024-198A,2026-07-23T20:30:44.218944,1.00270499,.0001232,0.0198,291.4015,208.9589,252.9552,0,U,61733,999,628,0,-.245E-5,0
KOREASAT 6A,2024-206A,2026-07-23T20:22:44.984064,1.00272008,.0001093,0.0044,225.9831,224.4978,272.8042,0,U,61910,999,620,0,-.357E-5,0
OPTUS-X (ADS-01),2024-212A,2026-07-23T18:51:36.404064,1.00271890,.0002523,0.0394,264.3817,235.7920,240.6447,0,U,62006,999,612,0,-.138E-5,0
GSAT-N2 (GSAT-20),2024-214A,2026-07-23T20:09:01.300896,1.00273287,.0002712,0.0568,256.4822,157.3979,257.8846,0,U,62028,999,626,0,-.14E-6,0
SXM-9,2024-234A,2026-07-23T07:26:52.943136,1.00270897,.0004645,0.0146,351.4562,329.3108,6.8217,0,U,62259,999,593,0,-.2E-5,0
TJS-12,2024-246A,2026-07-22T20:34:17.812704,1.00267847,.00019539,0.5955,303.0087,105.5609,347.0341,0,U,62374,999,592,0,-.228E-5,0
NUVIEW ALPHA,2024-252B,2026-07-23T12:35:18.934944,1.00271467,.0000936,0.0390,16.1130,64.2611,326.6038,0,U,62455,999,418,0,-.21E-5,0
AGILA,2024-252C,2026-07-23T19:26:25.351296,1.00271066,.0001601,0.0423,211.0594,277.4959,256.7412,0,U,62456,999,552,0,-.177E-5,0
NUVIEW BRAVO,2024-252D,2026-07-23T12:35:18.934944,1.00272830,.0001909,0.0675,170.1923,336.4608,260.3331,0,U,62457,999,415,0,-.21E-5,0
THURAYA-4,2025-001A,2026-07-23T08:33:38.784960,1.00272811,.000033,0.0199,76.9748,62.7418,334.0969,0,U,62483,999,454,0,.144E-5,0
SHIJIAN-25 (SJ-25),2025-002A,2026-07-22T13:38:20.852160,1.00275607,.0050731,5.1950,60.9361,176.6753,34.4537,0,U,62485,999,571,0,-.35E-5,0
TJS-14,2025-017A,2026-07-23T20:51:38.651040,1.00271637,.0001811,0.7024,298.4593,300.4006,33.9968,0,U,62804,999,563,0,.121E-5,0
SPAINSAT NG I,2025-021A,2026-07-23T13:07:23.361024,1.00271605,.0000309,0.0154,53.7160,27.6166,85.7683,0,U,62852,999,435,0,.156E-5,0
QZS-6 (MICHIBIKI-6),2025-023A,2026-07-23T20:15:30.678048,1.00273687,.0002091,0.0198,55.6692,60.5066,219.7744,0,U,62876,999,531,0,-.228E-5,0
ZHONGXING-10R,2025-036A,2026-07-23T13:16:38.626176,1.00269509,.000476,0.0674,246.3687,260.4391,104.1211,0,U,63075,999,532,0,-.347E-5,0
