TJS-10                  
1 58204U 23169A   26203.49009676 -.00000248  00000+0  00000+0 0  9997
2 58204   2.6328  80.0686 0004128 111.4129  17.6036  1.00272313  9892
ZHONGXING-6E            
1 58253U 23172A   26204.08100338 -.00000357  00000+0  00000+0 0  9999
2 58253   0.0514 246.3651 0003046 226.3469 332.7426  1.00268384 10018
YAOGAN-41               
1 58582U 23197A   26204.70808635 -.00000353  00000+0  00000+0 0  9991
2 58582   3.0635 313.7196 0014155 200.1410 165.6631  1.00273562  9699
OVZON-3                 
1 58698U 24003A   26204.83795171  .00000056  00000+0  00000+0 0  9999
2 58698   0.0200 149.0152 0000234 293.2241 220.6722  1.00273709  7810
INSAT-3DS               
1 58990U 24033A   26204.84245840 -.00000151  00000+0  00000+0 0  9998
2 58990   0.0702 261.7061 0001280 217.0954 208.1041  1.00273491 47435
MERAH PUTIH 2           
1 58995U 24035A   26204.84852509 -.00000353  00000+0  00000+0 0  9995
2 58995   0.0163  77.6216 0001281  38.2231 244.1422  1.00270718  8955
TJS-11                  
1 59020U 24037A   26204.84843844 -.00000353  00000+0  00000+0 0  9999
2 59020   4.1520 327.5415 0002164 159.7184 232.3274  1.00270620  8958
HULIANWAN GAOGUI-01 (H*)
1 59069U 24040A   26204.26255580  .00000160  00000+0  00000+0 0  9991
2 59069   0.0753 332.8067 0001654  77.1966  19.1378  1.00271574  7695
EUTELSAT 36D            
1 59346U 24059A   26204.54809816  .00000000  00000+0  00000+0 0  9990
2 59346   0.0245  61.2060 0000139  35.4304  77.8112  1.00270188  8514
PAKSAT-MM1              
1 59915U 24104A   26204.86364249  .00000159  00000+0  00000+0 0  9999
2 59915   0.0305 166.3769 0002297 295.2290 189.1506  1.00275973  7894
ASTRA 1P (SES-24)       
1 60086U 24115A   26204.11710375  .00000124  00000+0  00000+0 0  9997
2 60086   0.0671 323.7661 0001164 247.1895 151.2508  1.00268700  7555
GOES 19                 
1 60133U 24119A   26204.52617139 -.00000244  00000+0  00000+0 0  9997
2 60133   0.0205 124.2755 0000325  46.6739 244.5382  1.00272112  7329
ZHONGXING-3A            
1 60179U 24122A   26203.77701194 -.00000309  00000+0  00000+0 0  9994
2 60179   0.0306 139.3053 0001619  19.7453 162.7656  1.00271192  7669
TURKSAT 6A              
1 60233U 24127A   26202.83848117  .00000149  00000+0  00000+0 0  9994
2 60233   0.0444 216.7267 0003146 310.1163 116.5770  1.00274233  7363
HULIANWAN GAOGUI-02 (H*)
1 60327U 24135A   26203.44625211 -.00000170  00000+0  00000+0 0  9998
2 60327   0.0479 358.6429 0005894  13.0934 242.1466  1.00274738  7850
ZHONGXING-4A            
1 60606U 24151A   26204.84956512 -.00000356  00000+0  00000+0 0  9998
2 60606   1.2218 270.3914 0000115 248.6389 206.6128  1.00271480  7125
HULIANWAN GAOGUI-03 (H*)
1 61503U 24181A   26203.89812196 -.00000237  00000+0  00000+0 0  9999
2 61503   0.0529   1.4631 0001533  86.3948  98.9604  1.00275075  7187
DSN-3 (KIRAMEKI-3)      
1 61733U 24198A   26204.85467846 -.00000245  00000+0  00000+0 0  9996
2 61733   0.0198 291.4015 0001232 208.9589 252.9552  1.00270499  6289
KOREASAT 6A             
1 61910U 24206A   26204.84913176 -.00000357  00000+0  00000+0 0  9998
2 61910   0.0044 225.9831 0001093 224.4978 272.8042  1.00272008  6209
OPTUS-X (ADS-01)        
1 62006U 24212A   26204.78583801 -.00000138  00000+0  00000+0 0  9990
2 62006   0.0394 264.3817 0002523 235.7920 240.6447  1.00271890  6127
GSAT-N2 (GSAT-20)       
1 62028U 24214A   26204.83959839 -.00000014  00000+0  00000+0 0  9993
2 62028   0.0568 256.4822 0002712 157.3979 257.8846  1.00273287  6265
SXM-9                   
1 62259U 24234A   26204.31033499 -.00000200  00000+0  00000+0 0  9996
2 62259   0.0146 351.4562 0004645 329.3108   6.8217  1.00270897  5933
TJS-12                  
1 62374U 24246A   26203.85715061 -.00000228  00000+0  00000+0 0  9997
2 62374   0.5955 303.0087 0001953 105.5609 347.0341  1.00267847  5926
NUVIEW ALPHA            
1 62455U 24252B   26204.52452471 -.00000210  00000+0  00000+0 0  9993
2 62455   0.0390  16.1130 0000936  64.2611 326.6038  1.00271467  4185
AGILA                   
1 62456U 24252C   26204.81001564 -.00000177  00000+0  00000+0 0  9991
2 62456   0.0423 211.0594 0001601 277.4959 256.7412  1.00271066  5529
NUVIEW BRAVO            
1 62457U 24252D   26204.52452471 -.00000210  00000+0  00000+0 0  9995
2 62457   0.0675 170.1923 0001909 336.4608 260.3331  1.00272830  4157
THURAYA-4               
1 62483U 25001A   26204.35669890  .00000144  00000+0  00000+0 0  9998
2 62483   0.0199  76.9748 0000330  62.7418 334.0969  1.00272811  4548
SHIJIAN-25 (SJ-25)      
1 62485U 25002A   26203.56829690 -.00000350  00000+0  00000+0 0  9999
2 62485   5.1950  60.9361 0050731 176.6753  34.4537  1.00275607  5710
TJS-14                  
1 62804U 25017A   26204.86919735  .00000121  00000+0  00000+0 0  9999
2 62804   0.7024 298.4593 0001811 300.4006  33.9968  1.00271637  5638
SPAINSAT NG I           
1 62852U 25021A   26204.54679816  .00000156  00000+0  00000+0 0  9993
2 62852   0.0154  53.7160 0000309  27.6166  85.7683  1.00271605  4358
QZS-6 (MICHIBIKI-6)     
1 62876U 25023A   26204.84410507 -.00000228  00000+0  00000+0 0  9995
2 62876   0.0198  55.6692 0002091  60.5066 219.7744  1.00273687  5314
ZHONGXING-10R           
1 63075U 25036A   26204.55322484 -.00000347  00000+0  00000+0 0  9997
2 63075   0.0674 246.3687 0004760 260.4391 104.1211  1.00269509  5320
